#dP2022  7  3 18  0  0.00000000      96 __u+U ITR00 EXT  IAC
## 2217  64800.00000000   900.00000000 59763 0.7500000000000
+  116   C06C07C08C09C10C11C12C13C14C16C19C20C21C22C23C24C25
+        C26C27C28C29C30C32C33C34C35C36C37C38C39C40C41C42C43
+        C44C45C46E01E02E03E04E05E07E08E09E10E11E12E13E14E15
+        E18E19E21E24E25E26E27E30E31E33E34E36G01G02G03G04G05
+        G06G07G08G09G10G11G12G13G14G15G16G17G18G19G20G21G22
+        G23G24G25G26G27G28G29G30G31G32J02J03R01R02R03R04R05
+        R07R08R09R11R12R13R14R15R17R18R19R20R21R24  0  0  0
++        10 13  9  0 10  9  8  9  9 10  9  8  9  9  8  7  9
++         9  9  8  8  9  9  8  9  7  9  8  9 12  8 10  9  8
++         8  8  8  8  9  7  7  8  8  8  7  8  8  9 10  9  8
++         9  8  7  8  8  9  7  8  8  8  8  7  7  8  7  7  8
++         8  7  8  7  7  6  9  8  7  7  8  6  7  8  8  8  8
++         8  7  7  9  7  8  8  8  7  8 10 10  9  8 10  8  7
++         9  9 10  9  8  8  8  7  8  9  8  9  8  7  0  0  0
%c M  cc GPS ccc cccc cccc cccc cccc ccccc ccccc ccccc ccccc
%c cc cc ccc ccc cccc cccc cccc cccc ccccc ccccc ccccc ccccc
%f  0.0000000  0.000000000  0.00000000000  0.000000000000000
%f  0.0000000  0.000000000  0.00000000000  0.000000000000000
%i    0    0    0    0      0      0      0      0         0
%i    0    0    0    0      0      0      0      0         0
/* IAC                                ULTRA-RAPID PREDICTION
/* S/V CLOCKS ARE ALIGNED TO GNSS TIME                      
/* G:C1WC2W R:C1PC2P E:C1XC5X C:C2IC6I J:C1CC2S             
/* PCV:IGS14_2196 OL/AL:FES2004  NONE     YN ORB:CoN CLK:CoN
*  2022 07 03 23  0  0.00000000
PC06  -6378.787441  40416.713547  -9613.197962    319.219639
PC07  -4262.820482  27118.693447  32041.769948   -381.873838
PC08 -18574.321739  28728.452064 -24763.054454    389.617537
PC09  -2606.435305  41743.136388  -1921.582089   -939.313877
PC10   2827.123545  28894.081763  30970.924658    121.505605
PC11 -14575.476225 -11363.072359  20954.465723    452.829735
PC12  -7214.511202 -25801.000319   7804.685492   -585.277111
PC13 -13286.174293  29424.508957 -27144.459685     13.767591
PC14 -25733.043287 -10629.385139  -1282.094698    526.466878
PC16  -7417.256997  39572.991034 -11912.314757    142.213130
PC19  25628.133237   3683.881503  10469.991915   -133.819114
PC20  22681.197934  15002.846358  -6334.038328   -964.309090
PC21  -5761.389925 -18051.115178  20493.107248   -607.634838
PC22  13922.732087 -10212.451570  21930.401294   -962.979992
PC23 -20805.492144  18187.224714   3895.128485   -940.537254
PC24 -12553.199602 -10882.761491 -22425.111751   -968.335183
PC25 -24012.381250   6673.419902 -12577.461003   -712.767300
PC26   4123.661180 -20050.728444 -18958.619295    714.609631
PC27   1745.438601  27832.019499    837.144444    748.720598
PC28  -9761.949653  20287.127003  16491.043453     85.868037
PC29  15945.567938   -682.812316 -22902.838771    576.889288
PC30  12912.065081  19665.650723 -15006.282912    500.687486
PC32   5890.269464  18007.556675 -20478.858368   -973.834295
PC33 -25649.411264  -3597.192414 -10354.718145    -81.268304
PC34 -13303.093547 -18833.203615  15716.727459   -366.793185
PC35   9733.218307 -19703.872592 -17229.437086    349.512045
PC36  24036.217021  -5624.836355  13043.306353   -972.258549
PC37  -5827.134057  20271.495329  18301.444800   -913.314692
PC38 -23950.543790  30082.806135 -17457.391819      7.617820
PC39  -9148.488464  36919.670051 -17942.222536     34.988968
PC40  -8895.367815  21096.784956  35407.386867    -41.447996
PC41 -14335.330306   9965.723461 -21717.462867    -51.658930
PC42 -22001.468450 -15477.182741   7419.973783   -955.639756
PC43 -16121.705154   -224.363715  22764.204312      0.905274
PC44  -2565.072961 -27783.726743  -1083.663899    712.590962
PC45  20641.442942 -18289.649965  -4190.756813    799.756030
PC46  13845.153500   9596.356056  22251.456054   -412.740556
PE01  27278.651769   4608.878235  10531.296746   -508.293529
PE02 -27365.792090  -4486.222449 -10365.150661    309.668478
PE03 -22134.988384 -13245.799836 -14501.978147   -575.329254
PE04  16353.495363  -6128.643508  23910.241465  -1063.681778
PE05 -15015.705477 -25245.361337   3642.027210   -166.310863
PE07   -698.583558  22379.857074 -19357.900742   -684.266913
PE08 -16083.257574   6308.696150 -24029.040822   -557.477493
PE09    546.473191 -22308.605483  19445.399237   -575.244660
PE10  15769.693065 -23928.097915  -7416.659862   -523.918243
PE11  10221.435110 -27629.184733   2939.982016   3135.270218
PE12  18695.477152 -16568.422040 -15901.456983    -43.476344
PE13 -10598.898936  27543.500723  -2255.160794    429.617801
PE14  10093.818489 -18593.995961 -20800.099952  -1789.511801
PE15 -18620.987319  16484.640780  16047.787656    735.479258
PE18   4254.059376  26275.420748   8866.123809  -1255.949456
PE19  21876.295233  15483.686657  12576.551392  -5194.261231
PE21  12769.912998  14219.408329  22607.000175   -743.847195
PE24  11287.054629 -16208.000521 -22050.026680   -705.271508
PE25 -12470.826580 -14312.981463 -22701.377735   -579.824162
PE26   4320.814438  21780.329903 -19579.514994  -1335.582235
PE27 -10015.297255  16395.216935  22525.840767   -336.587398
PE30 -27177.135726   8271.524534   8328.756312   -643.443407
PE31  26698.045998  -8892.583876  -9173.904415   -499.330111
PE33  15621.281611   4230.577168 -24788.363600   -455.049086
PE34 -15706.926783  -3986.622549  24757.137390   -525.305756
PE36  -3565.932981 -22352.745347  19071.285457   -397.089592
PG01 -13855.067095  22425.529783    356.890208    328.515564
PG02  17486.850748  -7773.535504 -17836.745637   -651.952624
PG03 -14148.527206  12579.398978 -18696.107715   -297.326136
PG04  -5932.217395  17420.096946 -19108.739396   -150.080962
PG05  24828.545634  -6010.840851   7373.068913    -87.817708
PG06  11933.327370   8484.273955 -22098.647398    369.827837
PG07  -1998.083368  22628.130750  13754.029195    320.431211
PG08 -11436.433073  10182.805986  21632.868060    -74.715443
PG09   3771.946245  23291.952272 -12230.775219   -322.552385
PG10 -17010.493823 -11654.521757  17053.264114   -478.756864
PG11  18512.672438  -4715.199632 -18445.945456    -11.756572
PG12  17662.402782 -10397.138678 -17102.488559   -240.862977
PG13  15893.937740    594.643419  21145.945825    341.582367
PG14  15211.510198  13101.734577  17441.615933   -112.013091
PG15  10723.987201 -11625.923181  20894.841175    -48.261458
PG16 -26643.756266   -796.492300   2589.553469   -513.165722
PG17  13326.668732  22684.134188  -2980.835651    632.623040
PG18   3076.108461 -22613.040924  13477.202374    123.956961
PG19  16413.641776  17417.222221 -12019.415270    178.997850
PG20  26010.863616   -527.458724  -4694.213098    506.191127
PG21 -16933.528706  16976.640566  11243.658727    161.231613
PG22 -17147.129874 -15252.414404 -13103.224459    286.317159
PG23  -5758.359492 -14589.149671  21439.012919    -31.247361
PG24  14437.385709 -21385.994041   4982.633295    205.980376
PG25   3004.691950 -15335.352160 -21741.563109    344.941805
PG26 -25097.510870  -4634.253196  -8001.180521    216.154900
PG27 -17572.565386  -4075.508277  19411.009246    219.546451
PG28  21845.337297  10118.946690  11459.988571    330.208196
PG29  -2342.611994 -23615.745169 -11902.081687   -530.147001
PG30   6466.788940  16928.796198  19427.158371   -533.115434
PG31 -14314.681009  -6068.218249 -21692.536841   -184.323882
PG32 -16180.904874 -20464.740624  -5343.475392   -167.024972
PJ02 -31079.868359  24106.334399  20094.499954     -1.271886
PJ03 -26529.947556  28759.903364  20604.075197     -3.259440
PR01 -18385.731708 -16239.201616   6969.691491     10.918290
PR02 -20956.724510  -7822.595992 -12272.286894    523.126290
PR03 -10930.217601   5293.481553 -22392.838238     59.580868
PR04   5117.476713  15020.925549 -19938.729085    149.368087
PR05  18195.203905  16643.762332  -6471.653726     95.659276
PR07  10229.378538  -5915.783823  22640.797067     37.333938
PR08  -5216.548196 -15165.199328  19902.771887    -66.006281
PR09  22504.691697  -5036.664630  11008.313187     63.874682
PR11   8109.710063 -14240.487795 -19539.398130     34.365413
PR12 -10825.567271  -6574.080923 -22113.293663     19.156169
PR13 -21975.134663   4172.143521 -12267.812720    -24.237747
PR14 -20790.947155  13349.414923   6313.368285     25.014460
PR15  -7292.963174  14065.132924  20012.882483     94.898863
PR17  -9040.247101  17442.650162  16295.086970    540.387903
PR18  -2921.849740  25300.422714    869.851924    122.383781
PR19   3677.777435  20905.021124 -14159.451361   -194.981207
PR20  10209.331821   1689.820155 -23314.202077    -73.883624
PR21   8682.049381 -18547.321539 -15196.497371   -314.521896
PR24 -10804.130053   -727.373078  23104.343127    101.787035
EOF
